[{"OBJECT_NAME":"STARLINK-32691","OBJECT_ID":"2025-003Q","EPOCH":"2026-03-09T23:05:22.700256","MEAN_MOTION":15.27604405,"ECCENTRICITY":5.889e-5,"INCLINATION":43.0004,"RA_OF_ASC_NODE":287.389,"ARG_OF_PERICENTER":6.0113,"MEAN_ANOMALY":354.0745,"EPHEMERIS_TYPE":0,"CLASSIFICATION_TYPE":"U","NORAD_CAT_ID":62501,"ELEMENT_SET_NO":999,"REV_AT_EPOCH":6670,"BSTAR":0.0012775534,"MEAN_MOTION_DOT":0.00035087,"MEAN_MOTION_DDOT":0},{"OBJECT_NAME":"COSMOS 1758","OBJECT_ID":"1986-046A","EPOCH":"2026-03-09T22:23:33.220896","MEAN_MOTION":15.25706639,"ECCENTRICITY":0.00131526,"INCLINATION":82.4607,"RA_OF_ASC_NODE":143.3203,"ARG_OF_PERICENTER":337.3781,"MEAN_ANOMALY":22.6875,"EPHEMERIS_TYPE":0,"CLASSIFICATION_TYPE":"U","NORAD_CAT_ID":16791,"ELEMENT_SET_NO":999,"REV_AT_EPOCH":16610,"BSTAR":0.00027304427,"MEAN_MOTION_DOT":7.006e-5,"MEAN_MOTION_DDOT":0}]
